XRISM                   
1 57800U 23137A   24052.40906197  .00005369  00000+0  41834-3 0  9990
2 57800  31.0047  35.0623 0009899 134.3307 225.8141 14.99683841 25050
